TANSAT                  
1 41898U 16081A   26162.62856479  .00000185  00000+0  49054-4 0  9999
2 41898  98.5365 162.7218 0019937 330.1673  29.8388 14.59945919503818
JILIN-1 03              
1 41914U 17002B   26162.57307815  .00012406  00000+0  29819-3 0  9996
2 41914  97.1947 169.7369 0006091 171.6763 188.4586 15.41441367520997
CARTOSAT-2D             
1 41948U 17008A   26162.62601983  .00005703  00000+0  27338-3 0  9994
2 41948  97.4117 222.0359 0003604 254.7228 105.3609 15.19295528516736
CARTOSAT-2E             
1 42767U 17036C   26162.38018890  .00003701  00000+0  17867-3 0  9999
2 42767  97.4279 222.2784 0002738 345.0815  15.0338 15.19276811497268
IRIDIUM 113             
1 42803U 17039A   26162.51934298  .00000050  00000+0  10677-4 0  9994
2 42803  86.3966 324.5486 0002302  89.5088 270.6372 14.34217670470377
NORSAT 2                
1 42828U 17042D   26162.43887468  .00008942  00000+0  39608-3 0  9994
2 42828  97.4031 335.9719 0010720  75.5077 284.7348 15.21814729486866
TECHNOSAT               
1 42829U 17042E   26162.39817513  .00003079  00000+0  22080-3 0  9996
2 42829  97.4263 320.2771 0018777 112.5016 247.8201 15.04918472485839
FLYING LAPTOP           
1 42831U 17042G   26162.65287334  .00003083  00000+0  24442-3 0  9999
2 42831  97.4660 318.3997 0019326 139.6985 220.5677 15.01109878485628
WNISAT 1R               
1 42835U 17042L   26162.42829543  .00001968  00000+0  15552-3 0  9994
2 42835  97.4829 318.7569 0010454 166.7944 193.3557 15.01737537485642
LEMUR-2-GREENBERG       
1 42837U 17042N   26162.46705247  .00013082  00000+0  43649-3 0  9992
2 42837  97.3816 343.1197 0009063  33.8606 326.3213 15.31150950487517
LEMUR-2-FURIAUS         
1 42840U 17042R   26162.45680125  .00014890  00000+0  51338-3 0  9994
2 42840  97.3767 341.0779 0008429  86.5295 273.6910 15.30063384487334
CORVUS BC2              
1 42846U 17042X   26162.41537550  .00002485  00000+0  17303-3 0  9990
2 42846  97.4049 323.9906 0014182 128.3697 231.8807 15.06255419486198
CORVUS BC1              
1 42847U 17042Y   26162.41064219  .00003158  00000+0  21789-3 0  9999
2 42847  97.4079 324.7960 0013167 106.9575 253.3097 15.06425135486228
VRSS-2                  
1 42954U 17060A   26162.64761748  .00000545  00000+0  76241-4 0  9995
2 42954  97.6519 200.6239 0018378 115.3436 244.9683 14.81183999467630
MOHAMMED VI-A           
1 43005U 17070A   26162.58825457  .00000980  00000+0  14612-3 0  9991
2 43005  97.9558 234.9966 0001477  72.6293 287.5079 14.77064112463154
FENGYUN 3D              
1 43010U 17072A   26162.65032517 -.00000275  00000+0 -10809-3 0  9997
2 43010  99.0120 136.9722 0002649  70.9653 289.1809 14.19736941444208
NOAA 20 (JPSS-1)        
1 43013U 17073A   26162.57388135  .00000043  00000+0  41478-4 0  9990
2 43013  98.7772 102.0864 0000356  54.9671 305.1538 14.19510724443673
MAKERSAT 0              
1 43016U 17073D   26162.62810659  .00018408  00000+0  50303-3 0  9990
2 43016  97.4637  45.1038 0105553 293.1636  65.8513 15.31905939465617
RADFXSAT (FOX-1B)       
1 43017U 17073E   26162.58534501  .00008698  00000+0  38005-3 0  9990
2 43017  97.4718  29.9151 0150450 348.6412  11.1435 15.12626564464549
JILIN-1 04              
1 43022U 17074A   26162.57165636  .00012878  00000+0  30097-3 0  9993
2 43022  97.4849 272.0352 0003673 197.2639 162.8483 15.42301844473403
JILIN-1 05              
1 43023U 17074B   26162.57593900  .00007994  00000+0  24707-3 0  9997
2 43023  97.4857 268.6547 0003940 238.0038 122.0822 15.33788281473144
JILIN-1 06              
1 43024U 17074C   26162.61214038  .00005114  00000+0  15974-3 0  9993
2 43024  97.4784 265.7079 0005374 255.2134 104.8513 15.33631965472985
IRIDIUM 116             
1 43072U 17083C   26162.49397181  .00000045  00000+0  90012-5 0  9999
2 43072  86.3959 324.3822 0001883  95.3681 264.7730 14.34217568443353
IRIDIUM 130             
1 43073U 17083D   26162.46225793 -.00000093  00000+0 -40443-4 0  9993
2 43073  86.3965 324.6703 0001837  89.0856 271.0550 14.34217257443294
LKW-2                   
1 43080U 17084A   26162.65257616  .00008068  00000+0  31380-3 0  9999
2 43080  97.1198 202.7075 0000386 207.6641 152.4577 15.26269722470844
SUPERVIEW-1 03          
1 43099U 18002A   26162.57466703  .00017140  00000+0  42810-3 0  9991
2 43099  97.3136 247.4214 0046849 199.6517 160.2925 15.39066722467507
CARTOSAT-2F             
1 43111U 18004A   26162.60981932  .00005026  00000+0  24221-3 0  9994
2 43111  97.4797 222.2988 0000271 291.9939  68.1266 15.19174201466488
LKW-3                   
1 43146U 18006A   26162.64389875  .00011204  00000+0  33082-3 0  9996
2 43146  97.6601 323.0028 0002532 349.5643  10.5547 15.35143190467868
