OBJECT_NAME,OBJECT_ID,EPOCH,MEAN_MOTION,ECCENTRICITY,INCLINATION,RA_OF_ASC_NODE,ARG_OF_PERICENTER,MEAN_ANOMALY,EPHEMERIS_TYPE,CLASSIFICATION_TYPE,NORAD_CAT_ID,ELEMENT_SET_NO,REV_AT_EPOCH,BSTAR,MEAN_MOTION_DOT,MEAN_MOTION_DDOT
TANSAT,2016-081A,2026-06-11T15:05:07.997856,14.59945919,.00199379,98.5365,162.7218,330.1673,29.8388,0,U,41898,999,50381,.49054415E-4,.185E-5,0
JILIN-1 03,2017-002B,2026-06-11T13:45:13.952160,15.41441367,.00060917,97.1947,169.7369,171.6763,188.4586,0,U,41914,999,52099,.29818832E-3,.12406E-3,0
CARTOSAT-2D,2017-008A,2026-06-11T15:01:28.113312,15.19295528,.0003604,97.4117,222.0359,254.7228,105.3609,0,U,41948,999,51673,.27337737E-3,.5703E-4,0
CARTOSAT-2E,2017-036C,2026-06-11T09:07:28.320960,15.19276811,.00027386,97.4279,222.2784,345.0815,15.0338,0,U,42767,999,49726,.17867069E-3,.3701E-4,0
IRIDIUM 113,2017-039A,2026-06-11T12:27:51.233472,14.34217670,.00023027,86.3966,324.5486,89.5088,270.6372,0,U,42803,999,47037,.1067713E-4,.5E-6,0
NORSAT 2,2017-042D,2026-06-11T10:31:58.772352,15.21814729,.00107203,97.4031,335.9719,75.5077,284.7348,0,U,42828,999,48686,.39608142E-3,.8942E-4,0
TECHNOSAT,2017-042E,2026-06-11T09:33:22.331232,15.04918472,.00187773,97.4263,320.2771,112.5016,247.8201,0,U,42829,999,48583,.2208006E-3,.3079E-4,0
FLYING LAPTOP,2017-042G,2026-06-11T15:40:08.256576,15.01109878,.00193265,97.4660,318.3997,139.6985,220.5677,0,U,42831,999,48562,.24442084E-3,.3083E-4,0
WNISAT 1R,2017-042L,2026-06-11T10:16:44.725152,15.01737537,.00104543,97.4829,318.7569,166.7944,193.3557,0,U,42835,999,48564,.15552446E-3,.1968E-4,0
LEMUR-2-GREENBERG,2017-042N,2026-06-11T11:12:33.333408,15.31150950,.00090636,97.3816,343.1197,33.8606,326.3213,0,U,42837,999,48751,.43649323E-3,.13082E-3,0
LEMUR-2-FURIAUS,2017-042R,2026-06-11T10:57:47.628000,15.30063384,.00084295,97.3767,341.0779,86.5295,273.6910,0,U,42840,999,48733,.5133802E-3,.1489E-3,0
CORVUS BC2,2017-042X,2026-06-11T09:58:08.443200,15.06255419,.00141824,97.4049,323.9906,128.3697,231.8807,0,U,42846,999,48619,.17302694E-3,.2485E-4,0
CORVUS BC1,2017-042Y,2026-06-11T09:51:19.485216,15.06425135,.0013167,97.4079,324.7960,106.9575,253.3097,0,U,42847,999,48622,.21789157E-3,.3158E-4,0
VRSS-2,2017-060A,2026-06-11T15:32:34.150272,14.81183999,.00183785,97.6519,200.6239,115.3436,244.9683,0,U,42954,999,46763,.76240632E-4,.545E-5,0
MOHAMMED VI-A,2017-070A,2026-06-11T14:07:05.194848,14.77064112,.00014773,97.9558,234.9966,72.6293,287.5079,0,U,43005,999,46315,.14612022E-3,.98E-5,0
FENGYUN 3D,2017-072A,2026-06-11T15:36:28.094688,14.19736941,.00026492,99.0120,136.9722,70.9653,289.1809,0,U,43010,999,44420,-.10809052E-3,-.275E-5,0
NOAA 20 (JPSS-1),2017-073A,2026-06-11T13:46:23.348640,14.19510724,.00003564,98.7772,102.0864,54.9671,305.1538,0,U,43013,999,44367,.41478022E-4,.43E-6,0
MAKERSAT 0,2017-073D,2026-06-11T15:04:28.409376,15.31905939,.01055533,97.4637,45.1038,293.1636,65.8513,0,U,43016,999,46561,.50303151E-3,.18408E-3,0
RADFXSAT (FOX-1B),2017-073E,2026-06-11T14:02:53.808864,15.12626564,.01504504,97.4718,29.9151,348.6412,11.1435,0,U,43017,999,46454,.38005261E-3,.8698E-4,0
JILIN-1 04,2017-074A,2026-06-11T13:43:11.109504,15.42301844,.00036735,97.4849,272.0352,197.2639,162.8483,0,U,43022,999,47340,.30097211E-3,.12878E-3,0
JILIN-1 05,2017-074B,2026-06-11T13:49:21.129600,15.33788281,.00039403,97.4857,268.6547,238.0038,122.0822,0,U,43023,999,47314,.24706521E-3,.7994E-4,0
JILIN-1 06,2017-074C,2026-06-11T14:41:28.928832,15.33631965,.0005374,97.4784,265.7079,255.2134,104.8513,0,U,43024,999,47298,.15974018E-3,.5114E-4,0
IRIDIUM 116,2017-083C,2026-06-11T11:51:19.164384,14.34217568,.00018834,86.3959,324.3822,95.3681,264.7730,0,U,43072,999,44335,.9001236E-5,.45E-6,0
IRIDIUM 130,2017-083D,2026-06-11T11:05:39.085152,14.34217257,.00018376,86.3965,324.6703,89.0856,271.0550,0,U,43073,999,44329,-.40442794E-4,-.93E-6,0
LKW-2,2017-084A,2026-06-11T15:39:42.580224,15.26269722,.00003866,97.1198,202.7075,207.6641,152.4577,0,U,43080,999,47084,.3138034E-3,.8068E-4,0
SUPERVIEW-1 03,2018-002A,2026-06-11T13:47:31.231392,15.39066722,.00468497,97.3136,247.4214,199.6517,160.2925,0,U,43099,999,46750,.42810068E-3,.1714E-3,0
CARTOSAT-2F,2018-004A,2026-06-11T14:38:08.389248,15.19174201,.00002713,97.4797,222.2988,291.9939,68.1266,0,U,43111,999,46648,.24221298E-3,.5026E-4,0
LKW-3,2018-006A,2026-06-11T15:27:12.852000,15.35143190,.00025322,97.6601,323.0028,349.5643,10.5547,0,U,43146,999,46786,.33081985E-3,.11204E-3,0
